{"type":"FeatureCollection","features":[{"type":"Feature","geometry":{"type":"Point","coordinates":[3.8990191,50.4774681]},"properties":{"id":2.0,"libelle":"Cimeti\u00e8re de Ghlin","rue":"30 Rue de Tournai","localite":"Ghlin","code_postal":"7011"}},{"type":"Feature","geometry":{"type":"Point","coordinates":[3.8867342,50.4173202]},"properties":{"id":3.0,"libelle":"Cimeti\u00e8re de Fl\u00e9nu","rue":"35 Rue de Quaregnon","localite":"Fl\u00e9nu","code_postal":"7011"}},{"type":"Feature","geometry":{"type":"Point","coordinates":[3.9208611,50.4340757]},"properties":{"id":15.0,"libelle":"Cimeti\u00e8re de Cuesmes","rue":"90 Rue de Frameries","localite":"Cuesmes","code_postal":"7033"}},{"type":"Feature","geometry":{"type":"Point","coordinates":[4.0122552,50.4769373]},"properties":{"id":16.0,"libelle":"Cimeti\u00e8re d'Obourg","rue":"80 Rue des Ecoles","localite":"Obourg","code_postal":"7034"}},{"type":"Feature","geometry":{"type":"Point","coordinates":[3.8930549,50.4457906]},"properties":{"id":4.0,"libelle":"Cimeti\u00e8re de Jemappes","rue":"4 All\u00e9e du cimeti\u00e8re","localite":"Jemappes","code_postal":"7012"}},{"type":"Feature","geometry":{"type":"Point","coordinates":[4.0490275,50.4763232]},"properties":{"id":5.0,"libelle":"Cimeti\u00e8re d'Havr\u00e9 - Ghislage","rue":"Rue Marie Joyle","localite":"Havr\u00e9","code_postal":"7021"}},{"type":"Feature","geometry":{"type":"Point","coordinates":[3.9608278,50.4235475]},"properties":{"id":11.0,"libelle":"Cimeti\u00e8re de Mesvin","rue":"33 Voie Am\u00e9ricaine","localite":"Mesvin","code_postal":"7022"}},{"type":"Feature","geometry":{"type":"Point","coordinates":[3.9748379,50.4930949]},"properties":{"id":19.0,"libelle":"Cimeti\u00e8re de Maisi\u00e8res","rue":"Rue Grande","localite":"Maisi\u00e8res","code_postal":"7020"}},{"type":"Feature","geometry":{"type":"Point","coordinates":[3.9756493,50.4591064]},"properties":{"id":1.0,"libelle":"Cimeti\u00e8re de Mons","rue":"397 Chemin de la Procession","localite":"Mons","code_postal":"7000"}},{"type":"Feature","geometry":{"type":"Point","coordinates":[4.0437494,50.4554497]},"properties":{"id":6.0,"libelle":"Cimeti\u00e8re d'Havr\u00e9","rue":"42 Rue du Cimeti\u00e8re","localite":"Havr\u00e9","code_postal":"7021"}},{"type":"Feature","geometry":{"type":"Point","coordinates":[3.9592128,50.4373688]},"properties":{"id":7.0,"libelle":"Cimeti\u00e8re d'Hyon","rue":"Rue des Canadiens","localite":"Hyon","code_postal":"7022"}},{"type":"Feature","geometry":{"type":"Point","coordinates":[4.0086483,50.4357409]},"properties":{"id":13.0,"libelle":"Cimeti\u00e8re de Saint-Symphorien","rue":"8 Rue Arthur Duquesne","localite":"Saint-Symphorien","code_postal":"7030"}},{"type":"Feature","geometry":{"type":"Point","coordinates":[4.0411231,50.4290919]},"properties":{"id":14.0,"libelle":"Cimeti\u00e8re de Villers-Saint-Ghislain","rue":"Rue Pierre de Meester de Heyndonck","localite":"Villers st Ghislain","code_postal":"7031"}},{"type":"Feature","geometry":{"type":"Point","coordinates":[3.9826909,50.4237059]},"properties":{"id":20.0,"libelle":"Cimeti\u00e8re de Spiennes","rue":"Rue du petit Spiennes","localite":"Spiennes","code_postal":"7032"}},{"type":"Feature","geometry":{"type":"Point","coordinates":[4.0190177,50.4043988]},"properties":{"id":8.0,"libelle":"Cimeti\u00e8re d'Harmignies","rue":"511 Chauss\u00e9e de Beaumont","localite":"Harmignies","code_postal":"7022"}},{"type":"Feature","geometry":{"type":"Point","coordinates":[3.967154,50.4141975]},"properties":{"id":9.0,"libelle":"Cimeti\u00e8re de Nouvelles","rue":"3 Rue Briffaut","localite":"Nouvelles","code_postal":"7022"}},{"type":"Feature","geometry":{"type":"Point","coordinates":[3.9864095,50.3946308]},"properties":{"id":10.0,"libelle":"Cimeti\u00e8re d'Harveng","rue":"Route macadamis\u00e9e","localite":"Harveng","code_postal":"7022"}},{"type":"Feature","geometry":{"type":"Point","coordinates":[3.9641421,50.474412]},"properties":{"id":18.0,"libelle":"Cimeti\u00e8re de Nimy","rue":"100 Rue de l'\u00e9galit\u00e9","localite":"Nimy","code_postal":"7020"}},{"type":"Feature","geometry":{"type":"Point","coordinates":[3.9427678,50.4142229]},"properties":{"id":12.0,"libelle":"Cimeti\u00e8re de Ciply","rue":"262 Rue Brunehaut","localite":"Ciply","code_postal":"7024"}},{"type":"Feature","geometry":{"type":"Point","coordinates":[4.0148912,50.4939419]},"properties":{"id":17.0,"libelle":"Cimeti\u00e8re de Saint-Denis","rue":"1 Rue Bris\u00e9e","localite":"Saint-Denis","code_postal":"7034"}}]}