{"type":"FeatureCollection","features":[{"type":"Feature","geometry":{"type":"Point","coordinates":[3.9511005,50.4548381]},"properties":{"id":3.0,"libelle":"Jardin du Graty","type":"Jardin","adresse":"151-155 Rue d'Enghien","code_postal":"7000","localite":"Mons"}},{"type":"Feature","geometry":{"type":"Point","coordinates":[3.9556531,50.4525415]},"properties":{"id":21.0,"libelle":"Jardin Jacobs","type":"Jardin","adresse":"Rue Rachot","code_postal":"7000","localite":"Mons"}},{"type":"Feature","geometry":{"type":"Point","coordinates":[3.9495912,50.4537317]},"properties":{"id":13.0,"libelle":"Parc du Beffroi","type":"Parc","adresse":"Rampe du Ch\u00e2teau","code_postal":"7000","localite":"Mons"}},{"type":"Feature","geometry":{"type":"Point","coordinates":[3.9511241,50.4467645]},"properties":{"id":14.0,"libelle":"Parc (Jardin suspendu)","type":"Parc","adresse":"Rue de la Boulangerie","code_postal":"7000","localite":"Mons"}},{"type":"Feature","geometry":{"type":"Point","coordinates":[3.895069,50.4783605]},"properties":{"id":25.0,"libelle":"Parc de l'Herbette","type":"Parc","adresse":"Clos de l'Herbette","code_postal":"7011","localite":"Ghlin"}},{"type":"Feature","geometry":{"type":"Point","coordinates":[4.0436559,50.4637802]},"properties":{"id":40.0,"libelle":"Parc Rue L\u00e9on Flament","type":"Parc","adresse":"Rue L\u00e9on Flament","code_postal":"7021","localite":"Havr\u00e9"}},{"type":"Feature","geometry":{"type":"Point","coordinates":[4.0089568,50.4722607]},"properties":{"id":55.0,"libelle":"Parc d'Obourg","type":"Parc","adresse":"34 Rue de la Station","code_postal":"7034","localite":"Obourg"}},{"type":"Feature","geometry":{"type":"Point","coordinates":[3.9601881,50.4588729]},"properties":{"id":7.0,"libelle":"Ursulines  Square des (Parc John Fitzgerald Kennedy)","type":"Square","adresse":"Boulevard Pr\u00e9sident Kennedy","code_postal":"7000","localite":"Mons"}},{"type":"Feature","geometry":{"type":"Point","coordinates":[3.9576462,50.4479642]},"properties":{"id":20.0,"libelle":"Square du Pont Rouge","type":"Square","adresse":"Rue Jean Van den Eeden","code_postal":"7000","localite":"Mons"}},{"type":"Feature","geometry":{"type":"Point","coordinates":[3.9142226,50.4833718]},"properties":{"id":27.0,"libelle":"Square du Busteau","type":"Square","adresse":"Place du Busteau","code_postal":"7011","localite":"Ghlin"}},{"type":"Feature","geometry":{"type":"Point","coordinates":[3.883519,50.4518098]},"properties":{"id":31.0,"libelle":"Square J\u00e9richo","type":"Square","adresse":"Place de J\u00e9richo","code_postal":"7012","localite":"Jemappes"}},{"type":"Feature","geometry":{"type":"Point","coordinates":[3.9430692,50.4389035]},"properties":{"id":50.0,"libelle":"Square Rue de l'Aviation","type":"Square","adresse":"Rue de l'Aviation","code_postal":"7033","localite":"Cuesmes"}},{"type":"Feature","geometry":{"type":"Point","coordinates":[3.9226491,50.4320431]},"properties":{"id":54.0,"libelle":"R\u00e9sistance  Square de la","type":"Square","adresse":"Square de la R\u00e9sistance","code_postal":"7033","localite":"Cuesmes"}},{"type":"Feature","geometry":{"type":"Point","coordinates":[3.9522627,50.4549663]},"properties":{"id":1.0,"libelle":"Jardin du Mayeur","type":"Jardin","adresse":"22, Grand-place","code_postal":"7000","localite":"Mons"}},{"type":"Feature","geometry":{"type":"Point","coordinates":[3.9653669,50.4533989]},"properties":{"id":6.0,"libelle":"Parc (Waux-Hall)","type":"Parc","adresse":"Avenue Reine Astrid","code_postal":"7000","localite":"Mons"}},{"type":"Feature","geometry":{"type":"Point","coordinates":[3.9502138,50.4483108]},"properties":{"id":9.0,"libelle":"Parc de la Grande P\u00eacherie","type":"Parc","adresse":"Place de la Grande P\u00eacherie","code_postal":"7000","localite":"Mons"}},{"type":"Feature","geometry":{"type":"Point","coordinates":[3.9089875,50.4754886]},"properties":{"id":24.0,"libelle":"Parc du Joncquoy","type":"Parc","adresse":"33 Rue Bonaert","code_postal":"7011","localite":"Ghlin"}},{"type":"Feature","geometry":{"type":"Point","coordinates":[3.9577047,50.4766022]},"properties":{"id":37.0,"libelle":"Parc de l'Eglise","type":"Parc","adresse":"Rue Saint-Hubert","code_postal":"7020","localite":"Nimy"}},{"type":"Feature","geometry":{"type":"Point","coordinates":[3.9680386,50.4373973]},"properties":{"id":42.0,"libelle":"Parc de la Cascade","type":"Parc","adresse":"Rue du moulin au Bois","code_postal":"7022","localite":"Hyon"}},{"type":"Feature","geometry":{"type":"Point","coordinates":[3.9601996,50.440569]},"properties":{"id":43.0,"libelle":"Parc d'Hyon","type":"Parc","adresse":"Rue Louis Pi\u00e9rard","code_postal":"7022","localite":"Hyon"}},{"type":"Feature","geometry":{"type":"Point","coordinates":[3.9521702,50.4606012]},"properties":{"id":8.0,"libelle":"Square Verlaine","type":"Square","adresse":"Boulevard Winston Churchill","code_postal":"7000","localite":"Mons"}},{"type":"Feature","geometry":{"type":"Point","coordinates":[3.9584819,50.450164]},"properties":{"id":15.0,"libelle":"Square Rue de l'Epargne","type":"Square","adresse":"Rue de l'Epargne","code_postal":"7000","localite":"Mons"}},{"type":"Feature","geometry":{"type":"Point","coordinates":[3.9933042,50.4592276]},"properties":{"id":16.0,"libelle":"Square Rue des Muguets","type":"Square","adresse":"Rue des Muguets","code_postal":"7000","localite":"Mons"}},{"type":"Feature","geometry":{"type":"Point","coordinates":[3.8869931,50.4449678]},"properties":{"id":32.0,"libelle":"Square de la Perche","type":"Square","adresse":"Place de la Perche","code_postal":"7012","localite":"Jemappes"}},{"type":"Feature","geometry":{"type":"Point","coordinates":[3.9238237,50.4295709]},"properties":{"id":46.0,"libelle":"Square All\u00e9e des Boutons d'Or","type":"Square","adresse":"All\u00e9e des Boutons d'Or","code_postal":"7033","localite":"Cuesmes"}},{"type":"Feature","geometry":{"type":"Point","coordinates":[3.9436484,50.4595068]},"properties":{"id":5.0,"libelle":"Jardin des Expositions","type":"Jardin","adresse":"Avenue des Bassins","code_postal":"7000","localite":"Mons"}},{"type":"Feature","geometry":{"type":"Point","coordinates":[3.9445554,50.4510808]},"properties":{"id":2.0,"libelle":"Cours Caserne Vingternier  Mons  Cours\/Parc","type":"Parc","adresse":"13 Rue Andr\u00e9 Masquelier","code_postal":"7000","localite":"Mons"}},{"type":"Feature","geometry":{"type":"Point","coordinates":[3.9634476,50.4681716]},"properties":{"id":18.0,"libelle":"Parc Rue Henri Dunant","type":"Parc","adresse":"Rue Henri Dunant","code_postal":"7000","localite":"Mons"}},{"type":"Feature","geometry":{"type":"Point","coordinates":[3.9556531,50.4525415]},"properties":{"id":22.0,"libelle":"Parc Rachot","type":"Parc","adresse":"Rue Rachot","code_postal":"7000","localite":"Mons"}},{"type":"Feature","geometry":{"type":"Point","coordinates":[3.9770152,50.4846336]},"properties":{"id":36.0,"libelle":"Parc de Maisi\u00e8res","type":"Parc","adresse":"Rue Comte Cornet","code_postal":"7020","localite":"Maisi\u00e8res"}},{"type":"Feature","geometry":{"type":"Point","coordinates":[3.9343591,50.4475992]},"properties":{"id":49.0,"libelle":"Parc Dampierre","type":"Parc","adresse":"Rue Dampierre","code_postal":"7033","localite":"Cuesmes"}},{"type":"Feature","geometry":{"type":"Point","coordinates":[3.9515703,50.4580611]},"properties":{"id":11.0,"libelle":"Square du Parc","type":"Square","adresse":"Place du Parc","code_postal":"7000","localite":"Mons"}},{"type":"Feature","geometry":{"type":"Point","coordinates":[3.9121622,50.481602]},"properties":{"id":29.0,"libelle":"Square Rue de Jurbise","type":"Square","adresse":"Rue de Jurbise","code_postal":"7011","localite":"Ghlin"}},{"type":"Feature","geometry":{"type":"Point","coordinates":[4.0542449,50.4486749]},"properties":{"id":38.0,"libelle":"Square rue de Beaulieu","type":"Square","adresse":"Rue de Beaulieu","code_postal":"7021","localite":"Havr\u00e9"}},{"type":"Feature","geometry":{"type":"Point","coordinates":[4.010475,50.4712749]},"properties":{"id":56.0,"libelle":"Square Rue d'Am\u00e9rique","type":"Square","adresse":"Rue d'Am\u00e9rique","code_postal":"7034","localite":"Obourg"}},{"type":"Feature","geometry":{"type":"Point","coordinates":[3.9288795,50.4290645]},"properties":{"id":51.0,"libelle":"Jardin public rue de l'Espinette","type":"Jardin","adresse":"Rue de l'Espinette","code_postal":"7033","localite":"Cuesmes"}},{"type":"Feature","geometry":{"type":"Point","coordinates":[4.017422,50.4885401]},"properties":{"id":57.0,"libelle":"Verger \/ Jardin  Calva de Saint-Denis","type":"Jardin","adresse":"Rue du Grand Coron","code_postal":"7034","localite":"Saint-Denis"}},{"type":"Feature","geometry":{"type":"Point","coordinates":[4.0412746,50.4635709]},"properties":{"id":39.0,"libelle":"Parc du Ch\u00e2teau d'Havr\u00e9","type":"Parc","adresse":"Rue du Ch\u00e2teau","code_postal":"7021","localite":"Havr\u00e9"}},{"type":"Feature","geometry":{"type":"Point","coordinates":[3.9292278,50.4304052]},"properties":{"id":47.0,"libelle":"Parc Jules Bary","type":"Parc","adresse":"Cit\u00e9 Jules Bary","code_postal":"7033","localite":"Cuesmes"}},{"type":"Feature","geometry":{"type":"Point","coordinates":[3.9243497,50.4370432]},"properties":{"id":48.0,"libelle":"Parc Colruyt (Ferme Cuche)","type":"Parc","adresse":"Place de Cuesmes","code_postal":"7033","localite":"Cuesmes"}},{"type":"Feature","geometry":{"type":"Point","coordinates":[3.9497869,50.4492568]},"properties":{"id":10.0,"libelle":"Square Place des Martyrs","type":"Square","adresse":"Place des Martyrs","code_postal":"7000","localite":"Mons"}},{"type":"Feature","geometry":{"type":"Point","coordinates":[3.9461713,50.4540523]},"properties":{"id":23.0,"libelle":"Roosevelt  Square","type":"Square","adresse":"Square Franklin Delano Roosevelt","code_postal":"7000","localite":"Mons"}},{"type":"Feature","geometry":{"type":"Point","coordinates":[3.8910065,50.4499726]},"properties":{"id":35.0,"libelle":"Mac Donald  Square","type":"Square","adresse":"Rue Mac Donald","code_postal":"7012","localite":"Jemappes"}},{"type":"Feature","geometry":{"type":"Point","coordinates":[4.0177724,50.4721266]},"properties":{"id":58.0,"libelle":"Square Chapelle Saint-Macaire","type":"Square","adresse":"Rue Saint-Macaire","code_postal":"7034","localite":"Obourg"}},{"type":"Feature","geometry":{"type":"Point","coordinates":[3.886298,50.4385746]},"properties":{"id":33.0,"libelle":"Jardin Artistique","type":"Jardin","adresse":"Place du Souvenir","code_postal":"7012","localite":"Fl\u00e9nu"}},{"type":"Feature","geometry":{"type":"Point","coordinates":[3.9417485,50.4509111]},"properties":{"id":4.0,"libelle":"Parc de la Tour du Val des Ecoliers","type":"Parc","adresse":"38 Rue Andr\u00e9 Masquelier","code_postal":"7000","localite":"Mons"}},{"type":"Feature","geometry":{"type":"Point","coordinates":[3.9469677,50.454768]},"properties":{"id":17.0,"libelle":"Parc Chanoine Puissant","type":"Parc","adresse":"Rue des Sars","code_postal":"7000","localite":"Mons"}},{"type":"Feature","geometry":{"type":"Point","coordinates":[3.9576462,50.4479642]},"properties":{"id":19.0,"libelle":"Parc Van Den Eeden (Projet citoyen)","type":"Parc","adresse":"Rue Jean Van den Eeden","code_postal":"7000","localite":"Mons"}},{"type":"Feature","geometry":{"type":"Point","coordinates":[3.8793609,50.4560769]},"properties":{"id":30.0,"libelle":"Parc de Jemappes","type":"Parc","adresse":"35 Rue du Ch\u00e2teau Guillochain","code_postal":"7012","localite":"Jemappes"}},{"type":"Feature","geometry":{"type":"Point","coordinates":[3.9437751,50.4192335]},"properties":{"id":44.0,"libelle":"Parc Place de Ciply","type":"Parc","adresse":"Place de Ciply","code_postal":"7024","localite":"Ciply"}},{"type":"Feature","geometry":{"type":"Point","coordinates":[3.9313433,50.4386984]},"properties":{"id":53.0,"libelle":"Parc Vandervelde","type":"Parc","adresse":"Rue Emile Vandervelde","code_postal":"7033","localite":"Cuesmes"}},{"type":"Feature","geometry":{"type":"Point","coordinates":[3.9495189,50.4530475]},"properties":{"id":12.0,"libelle":"Square Saint Germain","type":"Square","adresse":"Place Saint Germain","code_postal":"7000","localite":"Mons"}},{"type":"Feature","geometry":{"type":"Point","coordinates":[3.9169297,50.4718334]},"properties":{"id":26.0,"libelle":"Square Place Bastien","type":"Square","adresse":"Place Bastien","code_postal":"7011","localite":"Ghlin"}},{"type":"Feature","geometry":{"type":"Point","coordinates":[3.9046181,50.4731406]},"properties":{"id":28.0,"libelle":"Square Place Triangulaire","type":"Square","adresse":"Place Triangulaire","code_postal":"7011","localite":"Ghlin"}},{"type":"Feature","geometry":{"type":"Point","coordinates":[3.8892146,50.4302225]},"properties":{"id":34.0,"libelle":"Square Rue des Produits","type":"Square","adresse":"Rue des Produits","code_postal":"7012","localite":"Fl\u00e9nu"}},{"type":"Feature","geometry":{"type":"Point","coordinates":[3.9611258,50.4292741]},"properties":{"id":41.0,"libelle":"Square Place de Mesvin","type":"Square","adresse":"Place de Mesvin","code_postal":"7022","localite":"Mesvin"}},{"type":"Feature","geometry":{"type":"Point","coordinates":[4.0117141,50.4423054]},"properties":{"id":45.0,"libelle":"Antheunis  Square Jules","type":"Square","adresse":"Rue Jules Antheunis","code_postal":"7030","localite":"Saint-Symphorien"}},{"type":"Feature","geometry":{"type":"Point","coordinates":[3.9128334,50.43457]},"properties":{"id":52.0,"libelle":"Square rue des Champs","type":"Square","adresse":"Rue des Champs","code_postal":"7033","localite":"Cuesmes"}}]}